start=new Date('2022-01-06T00:00:00.000Z').valueOf();
sats=[{"TLE_LINE1":"1 47158U 20088AN  22005.81923083  .00001339  00000-0  10877-3 0  9998","GP_ID":"193284571","SEMIMAJOR_AXIS":"6925.367","MEAN_MOTION_DDOT":"0.0000000000000","DECAY_DATE":null,"TLE_LINE2":"2 47158  53.0557 292.5271 0001892  51.3825 308.7333 15.06394097 62294","OBJECT_TYPE":"PAYLOAD","EPOCH":"2022-01-05T19:39:41.543712","FILE":"3265018","ECCENTRICITY":"0.00018920","ELEMENT_SET_NO":"999","TIME_SYSTEM":"UTC","MEAN_ANOMALY":"308.7333","NORAD_CAT_ID":"47158","PERIOD":"95.593","COUNTRY_CODE":"US","EPHEMERIS_TYPE":"0","CLASSIFICATION_TYPE":"U","CENTER_NAME":"EARTH","REF_FRAME":"TEME","BSTAR":"0.00010877000000","ARG_OF_PERICENTER":"51.3825","MEAN_MOTION":"15.06394097","APOAPSIS":"548.542","SITE":"AFETR","RCS_SIZE":"LARGE","PERIAPSIS":"545.921","RA_OF_ASC_NODE":"292.5271","INCLINATION":"53.0557","MEAN_ELEMENT_THEORY":"SGP4","REV_AT_EPOCH":"6229","MEAN_MOTION_DOT":"0.00001339","OBJECT_NAME":"STARLINK-1873","OBJECT_ID":"2020-088AN","LAUNCH_DATE":"2020-11-25"},{"REF_FRAME":"TEME","CENTER_NAME":"EARTH","BSTAR":"0.00084877000000","APOAPSIS":"420.339","SITE":"AFETR","MEAN_MOTION":"15.49180067","ARG_OF_PERICENTER":"34.0275","INCLINATION":"53.0552","PERIAPSIS":"417.911","RA_OF_ASC_NODE":"289.4086","RCS_SIZE":"LARGE","MEAN_ELEMENT_THEORY":"SGP4","MEAN_MOTION_DOT":"0.00046831","REV_AT_EPOCH":"6234","OBJECT_ID":"2020-088AP","OBJECT_NAME":"STARLINK-1874","LAUNCH_DATE":"2020-11-25","TLE_LINE1":"1 47159U 20088AP  22005.85074540  .00046831  00000-0  84877-3 0  9995","TLE_LINE2":"2 47159  53.0552 289.4086 0001786  34.0275 326.0847 15.49180067 62344","DECAY_DATE":null,"GP_ID":"193284821","SEMIMAJOR_AXIS":"6797.260","MEAN_MOTION_DDOT":"0.0000000000000","ECCENTRICITY":"0.00017860","FILE":"3265018","EPOCH":"2022-01-05T20:25:04.402560","OBJECT_TYPE":"PAYLOAD","ELEMENT_SET_NO":"999","NORAD_CAT_ID":"47159","MEAN_ANOMALY":"326.0847","TIME_SYSTEM":"UTC","EPHEMERIS_TYPE":"0","COUNTRY_CODE":"US","PERIOD":"92.952","CLASSIFICATION_TYPE":"U"},{"MEAN_ANOMALY":"311.0551","NORAD_CAT_ID":"47161","TIME_SYSTEM":"UTC","EPHEMERIS_TYPE":"0","PERIOD":"95.593","COUNTRY_CODE":"US","CLASSIFICATION_TYPE":"U","TLE_LINE1":"1 47161U 20088AR  22005.78606437  .00000637  00000-0  61680-4 0  9998","DECAY_DATE":null,"TLE_LINE2":"2 47161  53.0551 292.6832 0002069  49.0617 311.0551 15.06394106 62296","MEAN_MOTION_DDOT":"0.0000000000000","GP_ID":"193286069","SEMIMAJOR_AXIS":"6925.367","FILE":"3265018","ECCENTRICITY":"0.00020690","EPOCH":"2022-01-05T18:51:55.961568","OBJECT_TYPE":"PAYLOAD","ELEMENT_SET_NO":"999","MEAN_ELEMENT_THEORY":"SGP4","REV_AT_EPOCH":"6229","MEAN_MOTION_DOT":"0.00000637","OBJECT_NAME":"STARLINK-1876","OBJECT_ID":"2020-088AR","LAUNCH_DATE":"2020-11-25","REF_FRAME":"TEME","CENTER_NAME":"EARTH","BSTAR":"0.00006168000000","SITE":"AFETR","APOAPSIS":"548.664","ARG_OF_PERICENTER":"49.0617","MEAN_MOTION":"15.06394106","PERIAPSIS":"545.799","RA_OF_ASC_NODE":"292.6832","INCLINATION":"53.0551","RCS_SIZE":"LARGE"},{"CENTER_NAME":"EARTH","REF_FRAME":"TEME","BSTAR":"0.00001326000000","ARG_OF_PERICENTER":"58.0408","MEAN_MOTION":"15.06390830","SITE":"AFETR","APOAPSIS":"548.314","RCS_SIZE":"LARGE","PERIAPSIS":"546.170","RA_OF_ASC_NODE":"302.4038","INCLINATION":"53.0560","MEAN_ELEMENT_THEORY":"SGP4","REV_AT_EPOCH":"6216","MEAN_MOTION_DOT":"-0.00000084","OBJECT_NAME":"STARLINK-1877","OBJECT_ID":"2020-088AS","LAUNCH_DATE":"2020-11-25","TLE_LINE1":"1 47162U 20088AS  22005.84780425 -.00000084  00000-0  13260-4 0  9994","SEMIMAJOR_AXIS":"6925.377","GP_ID":"193286288","MEAN_MOTION_DDOT":"0.0000000000000","DECAY_DATE":null,"TLE_LINE2":"2 47162  53.0560 302.4038 0001548  58.0408 302.0732 15.06390830 62161","OBJECT_TYPE":"PAYLOAD","EPOCH":"2022-01-05T20:20:50.287200","ECCENTRICITY":"0.00015480","FILE":"3265018","ELEMENT_SET_NO":"999","TIME_SYSTEM":"UTC","MEAN_ANOMALY":"302.0732","NORAD_CAT_ID":"47162","PERIOD":"95.593","COUNTRY_CODE":"US","EPHEMERIS_TYPE":"0","CLASSIFICATION_TYPE":"U"},{"MEAN_ANOMALY":"303.0354","NORAD_CAT_ID":"47163","TIME_SYSTEM":"UTC","CLASSIFICATION_TYPE":"U","EPHEMERIS_TYPE":"0","PERIOD":"95.593","COUNTRY_CODE":"US","DECAY_DATE":null,"TLE_LINE2":"2 47163  53.0463 314.6768 0001748  57.0803 303.0354 15.06392944 61943","GP_ID":"193253444","SEMIMAJOR_AXIS":"6925.370","MEAN_MOTION_DDOT":"0.0000000000000","TLE_LINE1":"1 47163U 20088AT  22005.34927641 -.00000258  00000-0  16101-5 0  9994","ELEMENT_SET_NO":"999","FILE":"3264673","ECCENTRICITY":"0.00017480","EPOCH":"2022-01-05T08:22:57.481824","OBJECT_TYPE":"PAYLOAD","REV_AT_EPOCH":"6194","MEAN_MOTION_DOT":"-0.00000258","MEAN_ELEMENT_THEORY":"SGP4","LAUNCH_DATE":"2020-11-25","OBJECT_NAME":"STARLINK-1878","OBJECT_ID":"2020-088AT","BSTAR":"0.00000161010000","REF_FRAME":"TEME","CENTER_NAME":"EARTH","RA_OF_ASC_NODE":"314.6768","PERIAPSIS":"546.025","INCLINATION":"53.0463","RCS_SIZE":"LARGE","APOAPSIS":"548.446","SITE":"AFETR","ARG_OF_PERICENTER":"57.0803","MEAN_MOTION":"15.06392944"},{"CLASSIFICATION_TYPE":"U","PERIOD":"95.593","COUNTRY_CODE":"US","EPHEMERIS_TYPE":"0","TIME_SYSTEM":"UTC","MEAN_ANOMALY":"302.9567","NORAD_CAT_ID":"47164","ELEMENT_SET_NO":"999","OBJECT_TYPE":"PAYLOAD","EPOCH":"2022-01-05T22:25:34.465152","FILE":"3265018","ECCENTRICITY":"0.00016730","SEMIMAJOR_AXIS":"6925.394","GP_ID":"193285321","MEAN_MOTION_DDOT":"0.0000000000000","DECAY_DATE":null,"TLE_LINE2":"2 47164  53.0556 282.0175 0001673  57.1583 302.9567 15.06385242 62454","TLE_LINE1":"1 47164U 20088AU  22005.93442668 -.00000263  00000-0  12383-5 0  9995","LAUNCH_DATE":"2020-11-25","OBJECT_NAME":"STARLINK-1879","OBJECT_ID":"2020-088AU","REV_AT_EPOCH":"6245","MEAN_MOTION_DOT":"-0.00000263","MEAN_ELEMENT_THEORY":"SGP4","RCS_SIZE":"LARGE","PERIAPSIS":"546.100","RA_OF_ASC_NODE":"282.0175","INCLINATION":"53.0556","ARG_OF_PERICENTER":"57.1583","MEAN_MOTION":"15.06385242","APOAPSIS":"548.417","SITE":"AFETR","BSTAR":"0.00000123830000","CENTER_NAME":"EARTH","REF_FRAME":"TEME"},{"OBJECT_NAME":"STARLINK-1880","OBJECT_ID":"2020-088AV","LAUNCH_DATE":"2020-11-25","MEAN_ELEMENT_THEORY":"SGP4","REV_AT_EPOCH":"6208","MEAN_MOTION_DOT":"0.00000312","ARG_OF_PERICENTER":"60.7026","MEAN_MOTION":"15.06403734","SITE":"AFETR","APOAPSIS":"548.650","RCS_SIZE":"LARGE","RA_OF_ASC_NODE":"304.6743","PERIAPSIS":"545.755","INCLINATION":"53.0548","CENTER_NAME":"EARTH","REF_FRAME":"TEME","BSTAR":"0.00003986600000","PERIOD":"95.592","COUNTRY_CODE":"US","EPHEMERIS_TYPE":"0","CLASSIFICATION_TYPE":"U","TIME_SYSTEM":"UTC","MEAN_ANOMALY":"299.4172","NORAD_CAT_ID":"47165","EPOCH":"2022-01-05T08:13:39.971136","OBJECT_TYPE":"PAYLOAD","FILE":"3264673","ECCENTRICITY":"0.00020900","ELEMENT_SET_NO":"999","TLE_LINE1":"1 47165U 20088AV  22005.34282374  .00000312  00000-0  39866-4 0  9995","GP_ID":"193252442","MEAN_MOTION_DDOT":"0.0000000000000","SEMIMAJOR_AXIS":"6925.337","DECAY_DATE":null,"TLE_LINE2":"2 47165  53.0548 304.6743 0002090  60.7026 299.4172 15.06403734 62082"},{"NORAD_CAT_ID":"47166","MEAN_ANOMALY":"251.2254","TIME_SYSTEM":"UTC","CLASSIFICATION_TYPE":"U","EPHEMERIS_TYPE":"0","COUNTRY_CODE":"US","PERIOD":"93.891","TLE_LINE2":"2 47166  53.0483 253.0752 0002486 108.9017 251.2254 15.33698182 62868","DECAY_DATE":null,"SEMIMAJOR_AXIS":"6842.927","GP_ID":"193285789","MEAN_MOTION_DDOT":"0.0000000000000","TLE_LINE1":"1 47166U 20088AW  22005.88417372  .00017455  00000-0  53824-3 0  9998","ELEMENT_SET_NO":"999","FILE":"3265018","ECCENTRICITY":"0.00024860","EPOCH":"2022-01-05T21:13:12.609408","OBJECT_TYPE":"PAYLOAD","MEAN_MOTION_DOT":"0.00017455","REV_AT_EPOCH":"6286","MEAN_ELEMENT_THEORY":"SGP4","LAUNCH_DATE":"2020-11-25","OBJECT_ID":"2020-088AW","OBJECT_NAME":"STARLINK-1881","BSTAR":"0.00053824000000","REF_FRAME":"TEME","CENTER_NAME":"EARTH","INCLINATION":"53.0483","PERIAPSIS":"463.091","RA_OF_ASC_NODE":"253.0752","RCS_SIZE":"LARGE","APOAPSIS":"466.493","SITE":"AFETR","MEAN_MOTION":"15.33698182","ARG_OF_PERICENTER":"108.9017"},{"OBJECT_TYPE":"PAYLOAD","EPOCH":"2022-01-05T03:05:49.274592","ECCENTRICITY":"0.00039120","FILE":"3265018","ELEMENT_SET_NO":"999","TLE_LINE1":"1 47167U 20088AX  22005.12904253 -.00000388  00000-0 -71018-5 0  9991","GP_ID":"193284572","SEMIMAJOR_AXIS":"6925.346","MEAN_MOTION_DDOT":"0.0000000000000","DECAY_DATE":null,"TLE_LINE2":"2 47167  53.0548 305.6401 0003912 151.1622 208.9584 15.06400707 62053","PERIOD":"95.592","COUNTRY_CODE":"US","EPHEMERIS_TYPE":"0","CLASSIFICATION_TYPE":"U","TIME_SYSTEM":"UTC","MEAN_ANOMALY":"208.9584","NORAD_CAT_ID":"47167","ARG_OF_PERICENTER":"151.1622","MEAN_MOTION":"15.06400707","SITE":"AFETR","APOAPSIS":"549.921","RCS_SIZE":"LARGE","RA_OF_ASC_NODE":"305.6401","PERIAPSIS":"544.502","INCLINATION":"53.0548","CENTER_NAME":"EARTH","REF_FRAME":"TEME","BSTAR":"-0.00000710180000","OBJECT_NAME":"STARLINK-1884","OBJECT_ID":"2020-088AX","LAUNCH_DATE":"2020-11-25","MEAN_ELEMENT_THEORY":"SGP4","REV_AT_EPOCH":"6205","MEAN_MOTION_DOT":"-0.00000388"},{"MEAN_MOTION":"15.29709371","ARG_OF_PERICENTER":"41.8594","APOAPSIS":"477.934","SITE":"AFETR","RCS_SIZE":"LARGE","INCLINATION":"53.0569","PERIAPSIS":"475.431","RA_OF_ASC_NODE":"298.9784","CENTER_NAME":"EARTH","REF_FRAME":"TEME","BSTAR":"0.00144720000000","OBJECT_ID":"2020-088AY","OBJECT_NAME":"STARLINK-1885","LAUNCH_DATE":"2020-11-25","MEAN_ELEMENT_THEORY":"SGP4","MEAN_MOTION_DOT":"0.00042103","REV_AT_EPOCH":"6215","EPOCH":"2022-01-05T04:15:05.113728","OBJECT_TYPE":"PAYLOAD","FILE":"3264673","ECCENTRICITY":"0.00018260","ELEMENT_SET_NO":"999","TLE_LINE1":"1 47168U 20088AY  22005.17714252  .00042103  00000-0  14472-2 0  9992","SEMIMAJOR_AXIS":"6854.817","GP_ID":"193252692","MEAN_MOTION_DDOT":"0.0000000000000","TLE_LINE2":"2 47168  53.0569 298.9784 0001826  41.8594 318.2545 15.29709371 62157","DECAY_DATE":null,"COUNTRY_CODE":"US","PERIOD":"94.136","EPHEMERIS_TYPE":"0","CLASSIFICATION_TYPE":"U","TIME_SYSTEM":"UTC","NORAD_CAT_ID":"47168","MEAN_ANOMALY":"318.2545"}];
